{
  "type": "FeatureCollection",
  "features": [
    {
      "type": "Feature",
      "properties": {
        "norad_id": 45807,
        "name": "BEIDOU-3 G3 (C61)",
        "group": "gnss",
        "lat": -1.9659338586719937,
        "lon": -9.84152639136634,
        "alt_km": 35762.483960866615,
        "timestamp": "2025-12-22T09:53:37.648391+00:00",
        "meta_object_name": "BEIDOU-3 G3 (C61)",
        "meta_object_id": "2020-040A",
        "meta_epoch": "2025-12-21T13:52:43.971744",
        "meta_mean_motion": 1.00269819,
        "meta_eccentricity": 0.0006499,
        "meta_inclination": 2.0115,
        "meta_ra_of_asc_node": 66.6552,
        "meta_arg_of_pericenter": 309.2812,
        "meta_mean_anomaly": 33.2123,
        "meta_ephemeris_type": 0,
        "meta_classification_type": "U",
        "meta_norad_cat_id": 45807,
        "meta_element_set_no": 999,
        "meta_rev_at_epoch": 2028,
        "meta_bstar": 0,
        "meta_mean_motion_dot": -3.32e-06,
        "meta_mean_motion_ddot": 0,
        "tle_line1": "1 45807U 20040A   25355.57828671 -.00000332  00000+0  00000+0 0  9991",
        "tle_line2": "2 45807   2.0115  66.6552 0006499 309.2812  33.2123  1.00269819 20280"
      },
      "geometry": {
        "type": "Point",
        "coordinates": [
          -9.84152639136634,
          -1.9659338586719937
        ]
      }
    },
    {
      "type": "Feature",
      "properties": {
        "norad_id": 45854,
        "name": "GPS BIII-3  (PRN 23)",
        "group": "gnss",
        "lat": 41.3177815653051,
        "lon": -179.67632529342154,
        "alt_km": 20138.01627995812,
        "timestamp": "2025-12-22T09:53:37.648404+00:00",
        "meta_object_name": "GPS BIII-3  (PRN 23)",
        "meta_object_id": "2020-041A",
        "meta_epoch": "2025-12-20T05:44:36.632832",
        "meta_mean_motion": 2.00561934,
        "meta_eccentricity": 0.00606224,
        "meta_inclination": 56.5518,
        "meta_ra_of_asc_node": 35.8938,
        "meta_arg_of_pericenter": 203.675,
        "meta_mean_anomaly": 155.7759,
        "meta_ephemeris_type": 0,
        "meta_classification_type": "U",
        "meta_norad_cat_id": 45854,
        "meta_element_set_no": 999,
        "meta_rev_at_epoch": 4044,
        "meta_bstar": 0,
        "meta_mean_motion_dot": -5.8e-07,
        "meta_mean_motion_ddot": 0,
        "tle_line1": "1 45854U 20041A   25354.23931288 -.00000058  00000+0  00000+0 0  9990",
        "tle_line2": "2 45854  56.5518  35.8938 0060622 203.6750 155.7759  2.00561934 40444"
      },
      "geometry": {
        "type": "Point",
        "coordinates": [
          -179.67632529342154,
          41.3177815653051
        ]
      }
    },
    {
      "type": "Feature",
      "properties": {
        "norad_id": 46114,
        "name": "GALAXY 30 (WAAS/PRN 135)",
        "group": "gnss",
        "lat": 0.041700254634613076,
        "lon": 114.61259192218233,
        "alt_km": 35793.98973634316,
        "timestamp": "2025-12-22T09:53:37.648415+00:00",
        "meta_object_name": "GALAXY 30 (WAAS/PRN 135)",
        "meta_object_id": "2020-056C",
        "meta_epoch": "2025-12-22T02:17:55.557888",
        "meta_mean_motion": 1.00270018,
        "meta_eccentricity": 0.0001987,
        "meta_inclination": 0.0184,
        "meta_ra_of_asc_node": 4.1133,
        "meta_arg_of_pericenter": 262.4683,
        "meta_mean_anomaly": 93.8138,
        "meta_ephemeris_type": 0,
        "meta_classification_type": "U",
        "meta_norad_cat_id": 46114,
        "meta_element_set_no": 999,
        "meta_rev_at_epoch": 1951,
        "meta_bstar": 0,
        "meta_mean_motion_dot": 5.9e-07,
        "meta_mean_motion_ddot": 0,
        "tle_line1": "1 46114U 20056C   25356.09578192  .00000059  00000+0  00000+0 0  9993",
        "tle_line2": "2 46114   0.0184   4.1133 0001987 262.4683  93.8138  1.00270018 19516"
      },
      "geometry": {
        "type": "Point",
        "coordinates": [
          114.61259192218233,
          0.041700254634613076
        ]
      }
    },
    {
      "type": "Feature",
      "properties": {
        "norad_id": 46805,
        "name": "COSMOS 2547 (705K)",
        "group": "gnss",
        "lat": -57.20626665852721,
        "lon": 150.81784189963227,
        "alt_km": 19129.362705466454,
        "timestamp": "2025-12-22T09:53:37.648427+00:00",
        "meta_object_name": "COSMOS 2547 (705K)",
        "meta_object_id": "2020-075A",
        "meta_epoch": "2025-12-22T00:46:38.592768",
        "meta_mean_motion": 2.1310024,
        "meta_eccentricity": 0.000611,
        "meta_inclination": 64.5968,
        "meta_ra_of_asc_node": 198.3861,
        "meta_arg_of_pericenter": 227.635,
        "meta_mean_anomaly": 132.3817,
        "meta_ephemeris_type": 0,
        "meta_classification_type": "U",
        "meta_norad_cat_id": 46805,
        "meta_element_set_no": 999,
        "meta_rev_at_epoch": 4013,
        "meta_bstar": 0,
        "meta_mean_motion_dot": 9.6e-07,
        "meta_mean_motion_ddot": 0,
        "tle_line1": "1 46805U 20075A   25356.03239112  .00000096  00000+0  00000+0 0  9992",
        "tle_line2": "2 46805  64.5968 198.3861 0006110 227.6350 132.3817  2.13100240 40138"
      },
      "geometry": {
        "type": "Point",
        "coordinates": [
          150.81784189963227,
          -57.20626665852721
        ]
      }
    },
    {
      "type": "Feature",
      "properties": {
        "norad_id": 46826,
        "name": "GPS BIII-4  (PRN 14)",
        "group": "gnss",
        "lat": 53.06832684642713,
        "lon": -37.19011114074881,
        "alt_km": 20218.535295748366,
        "timestamp": "2025-12-22T09:53:37.648439+00:00",
        "meta_object_name": "GPS BIII-4  (PRN 14)",
        "meta_object_id": "2020-078A",
        "meta_epoch": "2025-12-16T01:06:13.902336",
        "meta_mean_motion": 2.00566891,
        "meta_eccentricity": 0.0064755,
        "meta_inclination": 54.0145,
        "meta_ra_of_asc_node": 218.2068,
        "meta_arg_of_pericenter": 203.3828,
        "meta_mean_anomaly": 339.3936,
        "meta_ephemeris_type": 0,
        "meta_classification_type": "U",
        "meta_norad_cat_id": 46826,
        "meta_element_set_no": 999,
        "meta_rev_at_epoch": 3783,
        "meta_bstar": 0,
        "meta_mean_motion_dot": 6.7e-07,
        "meta_mean_motion_ddot": 0,
        "tle_line1": "1 46826U 20078A   25350.04599424  .00000067  00000+0  00000+0 0  9996",
        "tle_line2": "2 46826  54.0145 218.2068 0064755 203.3828 339.3936  2.00566891 37831"
      },
      "geometry": {
        "type": "Point",
        "coordinates": [
          -37.19011114074881,
          53.06832684642713
        ]
      }
    },
    {
      "type": "Feature",
      "properties": {
        "norad_id": 48859,
        "name": "GPS BIII-5  (PRN 11)",
        "group": "gnss",
        "lat": -52.629277910283015,
        "lon": -85.76535673570254,
        "alt_km": 20147.34152768887,
        "timestamp": "2025-12-22T09:53:37.648450+00:00",
        "meta_object_name": "GPS BIII-5  (PRN 11)",
        "meta_object_id": "2021-054A",
        "meta_epoch": "2025-12-08T04:14:32.423424",
        "meta_mean_motion": 2.00553627,
        "meta_eccentricity": 0.0024678,
        "meta_inclination": 55.2581,
        "meta_ra_of_asc_node": 340.1367,
        "meta_arg_of_pericenter": 233.3993,
        "meta_mean_anomaly": 212.8594,
        "meta_ephemeris_type": 0,
        "meta_classification_type": "U",
        "meta_norad_cat_id": 48859,
        "meta_element_set_no": 999,
        "meta_rev_at_epoch": 3292,
        "meta_bstar": 0,
        "meta_mean_motion_dot": -8.6e-07,
        "meta_mean_motion_ddot": 0,
        "tle_line1": "1 48859U 21054A   25342.17676416 -.00000086  00000+0  00000+0 0  9993",
        "tle_line2": "2 48859  55.2581 340.1367 0024678 233.3993 212.8594  2.00553627 32922"
      },
      "geometry": {
        "type": "Point",
        "coordinates": [
          -85.76535673570254,
          -52.629277910283015
        ]
      }
    },
    {
      "type": "Feature",
      "properties": {
        "norad_id": 49336,
        "name": "QZS-1R (QZSS/PRN 196)",
        "group": "gnss",
        "lat": -33.209722637718485,
        "lon": 22.397260841502465,
        "alt_km": 32843.554209046786,
        "timestamp": "2025-12-22T09:53:37.648462+00:00",
        "meta_object_name": "QZS-1R (QZSS/PRN 196)",
        "meta_object_id": "2021-096A",
        "meta_epoch": "2025-12-21T13:52:43.837824",
        "meta_mean_motion": 1.00254729,
        "meta_eccentricity": 0.0756914,
        "meta_inclination": 37.0948,
        "meta_ra_of_asc_node": 82.2293,
        "meta_arg_of_pericenter": 271.4815,
        "meta_mean_anomaly": 79.0907,
        "meta_ephemeris_type": 0,
        "meta_classification_type": "U",
        "meta_norad_cat_id": 49336,
        "meta_element_set_no": 999,
        "meta_rev_at_epoch": 1522,
        "meta_bstar": 0,
        "meta_mean_motion_dot": -2.54e-06,
        "meta_mean_motion_ddot": 0,
        "tle_line1": "1 49336U 21096A   25355.57828516 -.00000254  00000+0  00000+0 0  9995",
        "tle_line2": "2 49336  37.0948  82.2293 0756914 271.4815  79.0907  1.00254729 15226"
      },
      "geometry": {
        "type": "Point",
        "coordinates": [
          22.397260841502465,
          -33.209722637718485
        ]
      }
    }
  ]
}